ORBCOMM FM37 [-]        
1 33064U 08031E   23262.73696340  .00002302  00000+0  36801-3 0  9998
2 33064  48.4398 117.4253 0006135 176.1445 225.5744 14.75058570820270
ORBCOMM FM40 [-]        
1 33065U 08031F   23262.71636510  .00002719  00000+0  41941-3 0  9993
2 33065  48.4423 108.8935 0007600 182.8633 219.5628 14.76077034820408
ORBCOMM FM109 [+]       
1 40086U 14040A   23263.09486445  .00001236  00000+0  31632-3 0  9992
2 40086  47.0036 134.8519 0002369 274.9741  85.0873 14.55910168488422
ORBCOMM FM107 [+]       
1 40087U 14040B   23263.12905932  .00001154  00000+0  29784-3 0  9998
2 40087  47.0054 135.6197 0001735 242.6147 117.4561 14.55907900488426
ORBCOMM FM111 [-]       
1 40089U 14040D   23262.37447142  .00002565  00000+0  36007-3 0  9993
2 40089  47.0048 297.2396 0033079  35.5132 324.7955 14.79933193495715
ORBCOMM FM104 [-]       
1 40090U 14040E   23263.14127180  .00001022  00000+0  27636-3 0  9993
2 40090  47.0056 161.9243 0017060 184.0576 176.0172 14.54468437488064
