<?xml version="1.0" encoding="UTF-8"?>
<ndm xmlns:xsi="http://www.w3.org/2001/XMLSchema-instance" xsi:noNamespaceSchemaLocation="https://sanaregistry.org/r/ndmxml_unqualified/ndmxml-2.0.0-master-2.0.xsd">
<omm id="CCSDS_OMM_VERS" version="2.0">
<header><CREATION_DATE/><ORIGINATOR/></header><body><segment><metadata><OBJECT_NAME>ORBCOMM FM37 [-]</OBJECT_NAME><OBJECT_ID>2008-031E</OBJECT_ID><CENTER_NAME>EARTH</CENTER_NAME><REF_FRAME>TEME</REF_FRAME><TIME_SYSTEM>UTC</TIME_SYSTEM><MEAN_ELEMENT_THEORY>SGP4</MEAN_ELEMENT_THEORY></metadata><data><meanElements><EPOCH>2023-09-19T17:41:13.637760</EPOCH><MEAN_MOTION>14.75058570</MEAN_MOTION><ECCENTRICITY>.0006135</ECCENTRICITY><INCLINATION>48.4398</INCLINATION><RA_OF_ASC_NODE>117.4253</RA_OF_ASC_NODE><ARG_OF_PERICENTER>176.1445</ARG_OF_PERICENTER><MEAN_ANOMALY>225.5744</MEAN_ANOMALY></meanElements><tleParameters><EPHEMERIS_TYPE>0</EPHEMERIS_TYPE><CLASSIFICATION_TYPE>U</CLASSIFICATION_TYPE><NORAD_CAT_ID>33064</NORAD_CAT_ID><ELEMENT_SET_NO>999</ELEMENT_SET_NO><REV_AT_EPOCH>82027</REV_AT_EPOCH><BSTAR>.36801E-3</BSTAR><MEAN_MOTION_DOT>.2302E-4</MEAN_MOTION_DOT><MEAN_MOTION_DDOT>0</MEAN_MOTION_DDOT></tleParameters></data></segment></body></omm>
<omm id="CCSDS_OMM_VERS" version="2.0">
<header><CREATION_DATE/><ORIGINATOR/></header><body><segment><metadata><OBJECT_NAME>ORBCOMM FM40 [-]</OBJECT_NAME><OBJECT_ID>2008-031F</OBJECT_ID><CENTER_NAME>EARTH</CENTER_NAME><REF_FRAME>TEME</REF_FRAME><TIME_SYSTEM>UTC</TIME_SYSTEM><MEAN_ELEMENT_THEORY>SGP4</MEAN_ELEMENT_THEORY></metadata><data><meanElements><EPOCH>2023-09-19T17:11:33.944640</EPOCH><MEAN_MOTION>14.76077034</MEAN_MOTION><ECCENTRICITY>.00076</ECCENTRICITY><INCLINATION>48.4423</INCLINATION><RA_OF_ASC_NODE>108.8935</RA_OF_ASC_NODE><ARG_OF_PERICENTER>182.8633</ARG_OF_PERICENTER><MEAN_ANOMALY>219.5628</MEAN_ANOMALY></meanElements><tleParameters><EPHEMERIS_TYPE>0</EPHEMERIS_TYPE><CLASSIFICATION_TYPE>U</CLASSIFICATION_TYPE><NORAD_CAT_ID>33065</NORAD_CAT_ID><ELEMENT_SET_NO>999</ELEMENT_SET_NO><REV_AT_EPOCH>82040</REV_AT_EPOCH><BSTAR>.41941E-3</BSTAR><MEAN_MOTION_DOT>.2719E-4</MEAN_MOTION_DOT><MEAN_MOTION_DDOT>0</MEAN_MOTION_DDOT></tleParameters></data></segment></body></omm>
<omm id="CCSDS_OMM_VERS" version="2.0">
<header><CREATION_DATE/><ORIGINATOR/></header><body><segment><metadata><OBJECT_NAME>ORBCOMM FM109 [+]</OBJECT_NAME><OBJECT_ID>2014-040A</OBJECT_ID><CENTER_NAME>EARTH</CENTER_NAME><REF_FRAME>TEME</REF_FRAME><TIME_SYSTEM>UTC</TIME_SYSTEM><MEAN_ELEMENT_THEORY>SGP4</MEAN_ELEMENT_THEORY></metadata><data><meanElements><EPOCH>2023-09-20T02:16:36.288480</EPOCH><MEAN_MOTION>14.55910168</MEAN_MOTION><ECCENTRICITY>.0002369</ECCENTRICITY><INCLINATION>47.0036</INCLINATION><RA_OF_ASC_NODE>134.8519</RA_OF_ASC_NODE><ARG_OF_PERICENTER>274.9741</ARG_OF_PERICENTER><MEAN_ANOMALY>85.0873</MEAN_ANOMALY></meanElements><tleParameters><EPHEMERIS_TYPE>0</EPHEMERIS_TYPE><CLASSIFICATION_TYPE>U</CLASSIFICATION_TYPE><NORAD_CAT_ID>40086</NORAD_CAT_ID><ELEMENT_SET_NO>999</ELEMENT_SET_NO><REV_AT_EPOCH>48842</REV_AT_EPOCH><BSTAR>.31632E-3</BSTAR><MEAN_MOTION_DOT>.1236E-4</MEAN_MOTION_DOT><MEAN_MOTION_DDOT>0</MEAN_MOTION_DDOT></tleParameters></data></segment></body></omm>
<omm id="CCSDS_OMM_VERS" version="2.0">
<header><CREATION_DATE/><ORIGINATOR/></header><body><segment><metadata><OBJECT_NAME>ORBCOMM FM107 [+]</OBJECT_NAME><OBJECT_ID>2014-040B</OBJECT_ID><CENTER_NAME>EARTH</CENTER_NAME><REF_FRAME>TEME</REF_FRAME><TIME_SYSTEM>UTC</TIME_SYSTEM><MEAN_ELEMENT_THEORY>SGP4</MEAN_ELEMENT_THEORY></metadata><data><meanElements><EPOCH>2023-09-20T03:05:50.725248</EPOCH><MEAN_MOTION>14.55907900</MEAN_MOTION><ECCENTRICITY>.0001735</ECCENTRICITY><INCLINATION>47.0054</INCLINATION><RA_OF_ASC_NODE>135.6197</RA_OF_ASC_NODE><ARG_OF_PERICENTER>242.6147</ARG_OF_PERICENTER><MEAN_ANOMALY>117.4561</MEAN_ANOMALY></meanElements><tleParameters><EPHEMERIS_TYPE>0</EPHEMERIS_TYPE><CLASSIFICATION_TYPE>U</CLASSIFICATION_TYPE><NORAD_CAT_ID>40087</NORAD_CAT_ID><ELEMENT_SET_NO>999</ELEMENT_SET_NO><REV_AT_EPOCH>48842</REV_AT_EPOCH><BSTAR>.29784E-3</BSTAR><MEAN_MOTION_DOT>.1154E-4</MEAN_MOTION_DOT><MEAN_MOTION_DDOT>0</MEAN_MOTION_DDOT></tleParameters></data></segment></body></omm>
<omm id="CCSDS_OMM_VERS" version="2.0">
<header><CREATION_DATE/><ORIGINATOR/></header><body><segment><metadata><OBJECT_NAME>ORBCOMM FM111 [-]</OBJECT_NAME><OBJECT_ID>2014-040D</OBJECT_ID><CENTER_NAME>EARTH</CENTER_NAME><REF_FRAME>TEME</REF_FRAME><TIME_SYSTEM>UTC</TIME_SYSTEM><MEAN_ELEMENT_THEORY>SGP4</MEAN_ELEMENT_THEORY></metadata><data><meanElements><EPOCH>2023-09-19T08:59:14.330688</EPOCH><MEAN_MOTION>14.79933193</MEAN_MOTION><ECCENTRICITY>.0033079</ECCENTRICITY><INCLINATION>47.0048</INCLINATION><RA_OF_ASC_NODE>297.2396</RA_OF_ASC_NODE><ARG_OF_PERICENTER>35.5132</ARG_OF_PERICENTER><MEAN_ANOMALY>324.7955</MEAN_ANOMALY></meanElements><tleParameters><EPHEMERIS_TYPE>0</EPHEMERIS_TYPE><CLASSIFICATION_TYPE>U</CLASSIFICATION_TYPE><NORAD_CAT_ID>40089</NORAD_CAT_ID><ELEMENT_SET_NO>999</ELEMENT_SET_NO><REV_AT_EPOCH>49571</REV_AT_EPOCH><BSTAR>.36007E-3</BSTAR><MEAN_MOTION_DOT>.2565E-4</MEAN_MOTION_DOT><MEAN_MOTION_DDOT>0</MEAN_MOTION_DDOT></tleParameters></data></segment></body></omm>
<omm id="CCSDS_OMM_VERS" version="2.0">
<header><CREATION_DATE/><ORIGINATOR/></header><body><segment><metadata><OBJECT_NAME>ORBCOMM FM104 [-]</OBJECT_NAME><OBJECT_ID>2014-040E</OBJECT_ID><CENTER_NAME>EARTH</CENTER_NAME><REF_FRAME>TEME</REF_FRAME><TIME_SYSTEM>UTC</TIME_SYSTEM><MEAN_ELEMENT_THEORY>SGP4</MEAN_ELEMENT_THEORY></metadata><data><meanElements><EPOCH>2023-09-20T03:23:25.883520</EPOCH><MEAN_MOTION>14.54468437</MEAN_MOTION><ECCENTRICITY>.001706</ECCENTRICITY><INCLINATION>47.0056</INCLINATION><RA_OF_ASC_NODE>161.9243</RA_OF_ASC_NODE><ARG_OF_PERICENTER>184.0576</ARG_OF_PERICENTER><MEAN_ANOMALY>176.0172</MEAN_ANOMALY></meanElements><tleParameters><EPHEMERIS_TYPE>0</EPHEMERIS_TYPE><CLASSIFICATION_TYPE>U</CLASSIFICATION_TYPE><NORAD_CAT_ID>40090</NORAD_CAT_ID><ELEMENT_SET_NO>999</ELEMENT_SET_NO><REV_AT_EPOCH>48806</REV_AT_EPOCH><BSTAR>.27636E-3</BSTAR><MEAN_MOTION_DOT>.1022E-4</MEAN_MOTION_DOT><MEAN_MOTION_DDOT>0</MEAN_MOTION_DDOT></tleParameters></data></segment></body></omm>

</ndm>
